ONEWEB-0161             
1 48053U 21025M   25215.50837133 -.00000116  00000+0 -35325-3 0  9995
2 48053  87.8970  23.3345 0001612  92.8419 267.2895 13.13472724211809
ONEWEB-0158             
1 48054U 21025N   25215.46773967  .00000336  00000+0  88451-3 0  9995
2 48054  87.8972  23.3220 0001931  94.8287 265.3063 13.13468958211926
ONEWEB-0157             
1 48055U 21025P   25215.49313187 -.00000266  00000+0 -76307-3 0  9994
2 48055  87.8967  23.3264 0001359  91.4843 268.6442 13.13469433211863
ONEWEB-0162             
1 48056U 21025Q   25215.46930458  .00000264  00000+0  68800-3 0  9993
2 48056  87.8969  23.3302 0001724  93.4254 266.7072 13.13469520211835
ONEWEB-0155             
1 48057U 21025R   25215.47619241 -.00000069  00000+0 -22317-3 0  9997
2 48057  87.8968  23.3368 0001717  86.3342 273.7984 13.13470401211973
ONEWEB-0149             
1 48058U 21025S   25215.49821250 -.00000204  00000+0 -59348-3 0  9990
2 48058  87.8968  23.3271 0001856 101.4010 258.7328 13.13469683211786
ONEWEB-0148             
1 48059U 21025T   25215.46097174  .00000413  00000+0  10948-2 0  9990
2 48059  87.8968  23.3589 0001477 114.0771 246.0513 13.13472144211908
ONEWEB-0160             
1 48060U 21025U   25215.47790697  .00000007  00000+0 -14576-4 0  9996
2 48060  87.8974  23.3532 0002548  91.8594 268.2827 13.13469222211851
ONEWEB-0163             
1 48061U 21025V   25215.46267447  .00000384  00000+0  10178-2 0  9997
2 48061  87.8969  23.3361 0001478  89.2510 270.8788 13.13469801211977
ONEWEB-0159             
1 48062U 21025W   25215.45420271  .00000402  00000+0  10668-2 0  9998
2 48062  87.8969  23.3194 0001552  94.3649 265.7657 13.13470625211890
ONEWEB-0164             
1 48063U 21025X   25215.51175897 -.00000048  00000+0 -16695-3 0  9992
2 48063  87.8961  23.3166 0001819  90.1437 269.9901 13.13470463211884
ONEWEB-0167             
1 48064U 21025Y   25215.46352502  .00000368  00000+0  97259-3 0  9995
2 48064  87.8978  23.3596 0001639  66.1145 294.0155 13.13470021211867
ONEWEB-0166             
1 48065U 21025Z   25215.48636760 -.00000194  00000+0 -56681-3 0  9992
2 48065  87.8964  23.3072 0001689  98.0897 262.0424 13.13470544211948
ONEWEB-0151             
1 48066U 21025AA  25215.48805671 -.00000217  00000+0 -62946-3 0  9999
2 48066  87.8966  23.3302 0001830  90.0652 270.0687 13.13469858211885
ONEWEB-0170             
1 48067U 21025AB  25215.49652228 -.00000298  00000+0 -85137-3 0  9995
2 48067  87.8971  23.3348 0002201  83.8114 276.3265 13.13470500211841
ONEWEB-0168             
1 48068U 21025AC  25215.48129801  .00000514  00000+0  13731-2 0  9990
2 48068  87.8980  23.3206 0001455  85.4060 274.7235 13.13470172211858
ONEWEB-0173             
1 48069U 21025AD  25215.47282478  .00000165  00000+0  41663-3 0  9998
2 48069  87.8972  23.3291 0001452  81.8890 278.2404 13.13469453212096
