[{"OBJECT_NAME":"ONEWEB-0161","OBJECT_ID":"2021-025M","EPOCH":"2025-08-03T12:12:03.282912","MEAN_MOTION":13.13472724,"ECCENTRICITY":0.0001612,"INCLINATION":87.897,"RA_OF_ASC_NODE":23.3345,"ARG_OF_PERICENTER":92.8419,"MEAN_ANOMALY":267.2895,"EPHEMERIS_TYPE":0,"CLASSIFICATION_TYPE":"U","NORAD_CAT_ID":48053,"ELEMENT_SET_NO":999,"REV_AT_EPOCH":21180,"BSTAR":-0.00035325,"MEAN_MOTION_DOT":-1.16e-6,"MEAN_MOTION_DDOT":0},{"OBJECT_NAME":"ONEWEB-0158","OBJECT_ID":"2021-025N","EPOCH":"2025-08-03T11:13:32.707488","MEAN_MOTION":13.13468958,"ECCENTRICITY":0.0001931,"INCLINATION":87.8972,"RA_OF_ASC_NODE":23.322,"ARG_OF_PERICENTER":94.8287,"MEAN_ANOMALY":265.3063,"EPHEMERIS_TYPE":0,"CLASSIFICATION_TYPE":"U","NORAD_CAT_ID":48054,"ELEMENT_SET_NO":999,"REV_AT_EPOCH":21192,"BSTAR":0.00088451,"MEAN_MOTION_DOT":3.36e-6,"MEAN_MOTION_DDOT":0},{"OBJECT_NAME":"ONEWEB-0157","OBJECT_ID":"2021-025P","EPOCH":"2025-08-03T11:50:06.593568","MEAN_MOTION":13.13469433,"ECCENTRICITY":0.0001359,"INCLINATION":87.8967,"RA_OF_ASC_NODE":23.3264,"ARG_OF_PERICENTER":91.4843,"MEAN_ANOMALY":268.6442,"EPHEMERIS_TYPE":0,"CLASSIFICATION_TYPE":"U","NORAD_CAT_ID":48055,"ELEMENT_SET_NO":999,"REV_AT_EPOCH":21186,"BSTAR":-0.00076307,"MEAN_MOTION_DOT":-2.66e-6,"MEAN_MOTION_DDOT":0},{"OBJECT_NAME":"ONEWEB-0162","OBJECT_ID":"2021-025Q","EPOCH":"2025-08-03T11:15:47.915712","MEAN_MOTION":13.1346952,"ECCENTRICITY":0.0001724,"INCLINATION":87.8969,"RA_OF_ASC_NODE":23.3302,"ARG_OF_PERICENTER":93.4254,"MEAN_ANOMALY":266.7072,"EPHEMERIS_TYPE":0,"CLASSIFICATION_TYPE":"U","NORAD_CAT_ID":48056,"ELEMENT_SET_NO":999,"REV_AT_EPOCH":21183,"BSTAR":0.000688,"MEAN_MOTION_DOT":2.64e-6,"MEAN_MOTION_DDOT":0},{"OBJECT_NAME":"ONEWEB-0155","OBJECT_ID":"2021-025R","EPOCH":"2025-08-03T11:25:43.024224","MEAN_MOTION":13.13470401,"ECCENTRICITY":0.0001717,"INCLINATION":87.8968,"RA_OF_ASC_NODE":23.3368,"ARG_OF_PERICENTER":86.3342,"MEAN_ANOMALY":273.7984,"EPHEMERIS_TYPE":0,"CLASSIFICATION_TYPE":"U","NORAD_CAT_ID":48057,"ELEMENT_SET_NO":999,"REV_AT_EPOCH":21197,"BSTAR":-0.00022317,"MEAN_MOTION_DOT":-6.9e-7,"MEAN_MOTION_DDOT":0},{"OBJECT_NAME":"ONEWEB-0149","OBJECT_ID":"2021-025S","EPOCH":"2025-08-03T11:57:25.560000","MEAN_MOTION":13.13469683,"ECCENTRICITY":0.0001856,"INCLINATION":87.8968,"RA_OF_ASC_NODE":23.3271,"ARG_OF_PERICENTER":101.401,"MEAN_ANOMALY":258.7328,"EPHEMERIS_TYPE":0,"CLASSIFICATION_TYPE":"U","NORAD_CAT_ID":48058,"ELEMENT_SET_NO":999,"REV_AT_EPOCH":21178,"BSTAR":-0.00059348,"MEAN_MOTION_DOT":-2.04e-6,"MEAN_MOTION_DDOT":0},{"OBJECT_NAME":"ONEWEB-0148","OBJECT_ID":"2021-025T","EPOCH":"2025-08-03T11:03:47.958336","MEAN_MOTION":13.13472144,"ECCENTRICITY":0.0001477,"INCLINATION":87.8968,"RA_OF_ASC_NODE":23.3589,"ARG_OF_PERICENTER":114.0771,"MEAN_ANOMALY":246.0513,"EPHEMERIS_TYPE":0,"CLASSIFICATION_TYPE":"U","NORAD_CAT_ID":48059,"ELEMENT_SET_NO":999,"REV_AT_EPOCH":21190,"BSTAR":0.0010948,"MEAN_MOTION_DOT":4.13e-6,"MEAN_MOTION_DDOT":0},{"OBJECT_NAME":"ONEWEB-0160","OBJECT_ID":"2021-025U","EPOCH":"2025-08-03T11:28:11.162208","MEAN_MOTION":13.13469222,"ECCENTRICITY":0.0002548,"INCLINATION":87.8974,"RA_OF_ASC_NODE":23.3532,"ARG_OF_PERICENTER":91.8594,"MEAN_ANOMALY":268.2827,"EPHEMERIS_TYPE":0,"CLASSIFICATION_TYPE":"U","NORAD_CAT_ID":48060,"ELEMENT_SET_NO":999,"REV_AT_EPOCH":21185,"BSTAR":-1.4576e-5,"MEAN_MOTION_DOT":7.0e-8,"MEAN_MOTION_DDOT":0},{"OBJECT_NAME":"ONEWEB-0163","OBJECT_ID":"2021-025V","EPOCH":"2025-08-03T11:06:15.074208","MEAN_MOTION":13.13469801,"ECCENTRICITY":0.0001478,"INCLINATION":87.8969,"RA_OF_ASC_NODE":23.3361,"ARG_OF_PERICENTER":89.251,"MEAN_ANOMALY":270.8788,"EPHEMERIS_TYPE":0,"CLASSIFICATION_TYPE":"U","NORAD_CAT_ID":48061,"ELEMENT_SET_NO":999,"REV_AT_EPOCH":21197,"BSTAR":0.0010178,"MEAN_MOTION_DOT":3.84e-6,"MEAN_MOTION_DDOT":0},{"OBJECT_NAME":"ONEWEB-0159","OBJECT_ID":"2021-025W","EPOCH":"2025-08-03T10:54:03.114144","MEAN_MOTION":13.13470625,"ECCENTRICITY":0.0001552,"INCLINATION":87.8969,"RA_OF_ASC_NODE":23.3194,"ARG_OF_PERICENTER":94.3649,"MEAN_ANOMALY":265.7657,"EPHEMERIS_TYPE":0,"CLASSIFICATION_TYPE":"U","NORAD_CAT_ID":48062,"ELEMENT_SET_NO":999,"REV_AT_EPOCH":21189,"BSTAR":0.0010668,"MEAN_MOTION_DOT":4.02e-6,"MEAN_MOTION_DDOT":0},{"OBJECT_NAME":"ONEWEB-0164","OBJECT_ID":"2021-025X","EPOCH":"2025-08-03T12:16:55.975008","MEAN_MOTION":13.13470463,"ECCENTRICITY":0.0001819,"INCLINATION":87.8961,"RA_OF_ASC_NODE":23.3166,"ARG_OF_PERICENTER":90.1437,"MEAN_ANOMALY":269.9901,"EPHEMERIS_TYPE":0,"CLASSIFICATION_TYPE":"U","NORAD_CAT_ID":48063,"ELEMENT_SET_NO":999,"REV_AT_EPOCH":21188,"BSTAR":-0.00016695,"MEAN_MOTION_DOT":-4.8e-7,"MEAN_MOTION_DDOT":0},{"OBJECT_NAME":"ONEWEB-0167","OBJECT_ID":"2021-025Y","EPOCH":"2025-08-03T11:07:28.561728","MEAN_MOTION":13.13470021,"ECCENTRICITY":0.0001639,"INCLINATION":87.8978,"RA_OF_ASC_NODE":23.3596,"ARG_OF_PERICENTER":66.1145,"MEAN_ANOMALY":294.0155,"EPHEMERIS_TYPE":0,"CLASSIFICATION_TYPE":"U","NORAD_CAT_ID":48064,"ELEMENT_SET_NO":999,"REV_AT_EPOCH":21186,"BSTAR":0.00097259,"MEAN_MOTION_DOT":3.68e-6,"MEAN_MOTION_DDOT":0},{"OBJECT_NAME":"ONEWEB-0166","OBJECT_ID":"2021-025Z","EPOCH":"2025-08-03T11:40:22.160640","MEAN_MOTION":13.13470544,"ECCENTRICITY":0.0001689,"INCLINATION":87.8964,"RA_OF_ASC_NODE":23.3072,"ARG_OF_PERICENTER":98.0897,"MEAN_ANOMALY":262.0424,"EPHEMERIS_TYPE":0,"CLASSIFICATION_TYPE":"U","NORAD_CAT_ID":48065,"ELEMENT_SET_NO":999,"REV_AT_EPOCH":21194,"BSTAR":-0.00056681,"MEAN_MOTION_DOT":-1.94e-6,"MEAN_MOTION_DDOT":0},{"OBJECT_NAME":"ONEWEB-0151","OBJECT_ID":"2021-025AA","EPOCH":"2025-08-03T11:42:48.099744","MEAN_MOTION":13.13469858,"ECCENTRICITY":0.000183,"INCLINATION":87.8966,"RA_OF_ASC_NODE":23.3302,"ARG_OF_PERICENTER":90.0652,"MEAN_ANOMALY":270.0687,"EPHEMERIS_TYPE":0,"CLASSIFICATION_TYPE":"U","NORAD_CAT_ID":48066,"ELEMENT_SET_NO":999,"REV_AT_EPOCH":21188,"BSTAR":-0.00062946,"MEAN_MOTION_DOT":-2.17e-6,"MEAN_MOTION_DDOT":0},{"OBJECT_NAME":"ONEWEB-0170","OBJECT_ID":"2021-025AB","EPOCH":"2025-08-03T11:54:59.524992","MEAN_MOTION":13.134705,"ECCENTRICITY":0.0002201,"INCLINATION":87.8971,"RA_OF_ASC_NODE":23.3348,"ARG_OF_PERICENTER":83.8114,"MEAN_ANOMALY":276.3265,"EPHEMERIS_TYPE":0,"CLASSIFICATION_TYPE":"U","NORAD_CAT_ID":48067,"ELEMENT_SET_NO":999,"REV_AT_EPOCH":21184,"BSTAR":-0.00085137,"MEAN_MOTION_DOT":-2.98e-6,"MEAN_MOTION_DDOT":0},{"OBJECT_NAME":"ONEWEB-0168","OBJECT_ID":"2021-025AC","EPOCH":"2025-08-03T11:33:04.148064","MEAN_MOTION":13.13470172,"ECCENTRICITY":0.0001455,"INCLINATION":87.898,"RA_OF_ASC_NODE":23.3206,"ARG_OF_PERICENTER":85.406,"MEAN_ANOMALY":274.7235,"EPHEMERIS_TYPE":0,"CLASSIFICATION_TYPE":"U","NORAD_CAT_ID":48068,"ELEMENT_SET_NO":999,"REV_AT_EPOCH":21185,"BSTAR":0.0013731,"MEAN_MOTION_DOT":5.14e-6,"MEAN_MOTION_DDOT":0},{"OBJECT_NAME":"ONEWEB-0173","OBJECT_ID":"2021-025AD","EPOCH":"2025-08-03T11:20:52.060992","MEAN_MOTION":13.13469453,"ECCENTRICITY":0.0001452,"INCLINATION":87.8972,"RA_OF_ASC_NODE":23.3291,"ARG_OF_PERICENTER":81.889,"MEAN_ANOMALY":278.2404,"EPHEMERIS_TYPE":0,"CLASSIFICATION_TYPE":"U","NORAD_CAT_ID":48069,"ELEMENT_SET_NO":999,"REV_AT_EPOCH":21209,"BSTAR":0.00041663,"MEAN_MOTION_DOT":1.65e-6,"MEAN_MOTION_DDOT":0}]
